{
  "type": "FeatureCollection",
  "features": [
    {
      "type": "Feature",
      "properties": {
        "norad_id": 38199,
        "name": "COSMOS 2251 DEB",
        "group": "cosmos-2251-debris",
        "lat": -69.11565524287145,
        "lon": -79.11584386802406,
        "alt_km": 971.3872333438803,
        "timestamp": "2025-12-18T23:35:49.461378+00:00",
        "meta_object_name": "COSMOS 2251 DEB",
        "meta_object_id": "1993-036BSP",
        "meta_epoch": "2025-12-17T12:53:35.661984",
        "meta_mean_motion": 13.64800412,
        "meta_eccentricity": 0.0369854,
        "meta_inclination": 73.956,
        "meta_ra_of_asc_node": 54.3066,
        "meta_arg_of_pericenter": 339.8332,
        "meta_mean_anomaly": 18.8482,
        "meta_ephemeris_type": 0,
        "meta_classification_type": "U",
        "meta_norad_cat_id": 38199,
        "meta_element_set_no": 999,
        "meta_rev_at_epoch": 61087,
        "meta_bstar": 0.00048545841,
        "meta_mean_motion_dot": 6e-06,
        "meta_mean_motion_ddot": 0,
        "tle_line1": "1 38199U 93036BSP 25351.53721831  .00000600  00000+0  48546-3 0  9992",
        "tle_line2": "2 38199  73.9560  54.3066 0369854 339.8332  18.8482 13.64800412610874"
      },
      "geometry": {
        "type": "Point",
        "coordinates": [
          -79.11584386802406,
          -69.11565524287145
        ]
      }
    },
    {
      "type": "Feature",
      "properties": {
        "norad_id": 38208,
        "name": "COSMOS 2251 DEB",
        "group": "cosmos-2251-debris",
        "lat": -35.727036639474385,
        "lon": -101.57983174239104,
        "alt_km": 622.0146043729419,
        "timestamp": "2025-12-18T23:35:49.461388+00:00",
        "meta_object_name": "COSMOS 2251 DEB",
        "meta_object_id": "1993-036BSY",
        "meta_epoch": "2025-12-16T00:13:39.722592",
        "meta_mean_motion": 14.84023361,
        "meta_eccentricity": 0.00017369,
        "meta_inclination": 74.0064,
        "meta_ra_of_asc_node": 72.4172,
        "meta_arg_of_pericenter": 150.2716,
        "meta_mean_anomaly": 26.1687,
        "meta_ephemeris_type": 0,
        "meta_classification_type": "U",
        "meta_norad_cat_id": 38208,
        "meta_element_set_no": 999,
        "meta_rev_at_epoch": 71207,
        "meta_bstar": 0.0016436813,
        "meta_mean_motion_dot": 0.00013687,
        "meta_mean_motion_ddot": 0,
        "tle_line1": "1 38208U 93036BSY 25350.00948753  .00013687  00000+0  16437-2 0  9990",
        "tle_line2": "2 38208  74.0064  72.4172 0001736 150.2716  26.1687 14.84023361712075"
      },
      "geometry": {
        "type": "Point",
        "coordinates": [
          -101.57983174239104,
          -35.727036639474385
        ]
      }
    },
    {
      "type": "Feature",
      "properties": {
        "norad_id": 38212,
        "name": "COSMOS 2251 DEB",
        "group": "cosmos-2251-debris",
        "lat": 23.89115914121674,
        "lon": 71.63432539228975,
        "alt_km": 651.3180207729865,
        "timestamp": "2025-12-18T23:35:49.461399+00:00",
        "meta_object_name": "COSMOS 2251 DEB",
        "meta_object_id": "1993-036BTC",
        "meta_epoch": "2025-12-16T22:44:21.570432",
        "meta_mean_motion": 14.77712349,
        "meta_eccentricity": 0.00922486,
        "meta_inclination": 74.0525,
        "meta_ra_of_asc_node": 68.3479,
        "meta_arg_of_pericenter": 134.0711,
        "meta_mean_anomaly": 226.8108,
        "meta_ephemeris_type": 0,
        "meta_classification_type": "U",
        "meta_norad_cat_id": 38212,
        "meta_element_set_no": 999,
        "meta_rev_at_epoch": 81372,
        "meta_bstar": 0.00029648241,
        "meta_mean_motion_dot": 2.245e-05,
        "meta_mean_motion_ddot": 0,
        "tle_line1": "1 38212U 93036BTC 25350.94747188  .00002245  00000+0  29648-3 0  9994",
        "tle_line2": "2 38212  74.0525  68.3479 0092248 134.0711 226.8108 14.77712349813723"
      },
      "geometry": {
        "type": "Point",
        "coordinates": [
          71.63432539228975,
          23.89115914121674
        ]
      }
    },
    {
      "type": "Feature",
      "properties": {
        "norad_id": 38220,
        "name": "COSMOS 2251 DEB",
        "group": "cosmos-2251-debris",
        "lat": 18.07684725711452,
        "lon": -129.64258612847922,
        "alt_km": 590.2594672721125,
        "timestamp": "2025-12-18T23:35:49.461409+00:00",
        "meta_object_name": "COSMOS 2251 DEB",
        "meta_object_id": "1993-036BTL",
        "meta_epoch": "2025-12-17T11:30:14.878368",
        "meta_mean_motion": 14.9320096,
        "meta_eccentricity": 0.00051577,
        "meta_inclination": 74.0158,
        "meta_ra_of_asc_node": 58.7526,
        "meta_arg_of_pericenter": 31.4503,
        "meta_mean_anomaly": 328.6988,
        "meta_ephemeris_type": 0,
        "meta_classification_type": "U",
        "meta_norad_cat_id": 38220,
        "meta_element_set_no": 999,
        "meta_rev_at_epoch": 71441,
        "meta_bstar": 0.0021815417,
        "meta_mean_motion_dot": 0.00022841,
        "meta_mean_motion_ddot": 0,
        "tle_line1": "1 38220U 93036BTL 25351.47933887  .00022841  00000+0  21815-2 0  9996",
        "tle_line2": "2 38220  74.0158  58.7526 0005157  31.4503 328.6988 14.93200960714414"
      },
      "geometry": {
        "type": "Point",
        "coordinates": [
          -129.64258612847922,
          18.07684725711452
        ]
      }
    },
    {
      "type": "Feature",
      "properties": {
        "norad_id": 38479,
        "name": "COSMOS 2251 DEB",
        "group": "cosmos-2251-debris",
        "lat": 38.52908847114565,
        "lon": -20.443192052108888,
        "alt_km": 806.9540743126236,
        "timestamp": "2025-12-18T23:35:49.461421+00:00",
        "meta_object_name": "COSMOS 2251 DEB",
        "meta_object_id": "1993-036BTP",
        "meta_epoch": "2025-12-13T19:29:32.997408",
        "meta_mean_motion": 14.3831318,
        "meta_eccentricity": 0.0084157,
        "meta_inclination": 74.007,
        "meta_ra_of_asc_node": 182.3013,
        "meta_arg_of_pericenter": 291.0961,
        "meta_mean_anomaly": 83.9532,
        "meta_ephemeris_type": 0,
        "meta_classification_type": "U",
        "meta_norad_cat_id": 38479,
        "meta_element_set_no": 999,
        "meta_rev_at_epoch": 64703,
        "meta_bstar": 0.0021939338,
        "meta_mean_motion_dot": 6.938e-05,
        "meta_mean_motion_ddot": 0,
        "tle_line1": "1 38479U 93036BTP 25347.81218747  .00006938  00000+0  21939-2 0  9992",
        "tle_line2": "2 38479  74.0070 182.3013 0084157 291.0961  83.9532 14.38313180647034"
      },
      "geometry": {
        "type": "Point",
        "coordinates": [
          -20.443192052108888,
          38.52908847114565
        ]
      }
    },
    {
      "type": "Feature",
      "properties": {
        "norad_id": 38481,
        "name": "COSMOS 2251 DEB",
        "group": "cosmos-2251-debris",
        "lat": 32.3784222598532,
        "lon": 166.2363774918244,
        "alt_km": 1056.2855394449798,
        "timestamp": "2025-12-18T23:35:49.461431+00:00",
        "meta_object_name": "COSMOS 2251 DEB",
        "meta_object_id": "1993-036BTR",
        "meta_epoch": "2025-12-17T17:37:11.726400",
        "meta_mean_motion": 13.94852214,
        "meta_eccentricity": 0.02348213,
        "meta_inclination": 73.9324,
        "meta_ra_of_asc_node": 358.9239,
        "meta_arg_of_pericenter": 298.2644,
        "meta_mean_anomaly": 59.4964,
        "meta_ephemeris_type": 0,
        "meta_classification_type": "U",
        "meta_norad_cat_id": 38481,
        "meta_element_set_no": 999,
        "meta_rev_at_epoch": 59130,
        "meta_bstar": 0.0012605173,
        "meta_mean_motion_dot": 2.103e-05,
        "meta_mean_motion_ddot": 0,
        "tle_line1": "1 38481U 93036BTR 25351.73416350  .00002103  00000+0  12605-2 0  9991",
        "tle_line2": "2 38481  73.9324 358.9239 0234821 298.2644  59.4964 13.94852214591302"
      },
      "geometry": {
        "type": "Point",
        "coordinates": [
          166.2363774918244,
          32.3784222598532
        ]
      }
    },
    {
      "type": "Feature",
      "properties": {
        "norad_id": 38483,
        "name": "COSMOS 2251 DEB",
        "group": "cosmos-2251-debris",
        "lat": -63.00833207428471,
        "lon": -33.04023433039259,
        "alt_km": 881.1377791152281,
        "timestamp": "2025-12-18T23:35:49.461442+00:00",
        "meta_object_name": "COSMOS 2251 DEB",
        "meta_object_id": "1993-036BTT",
        "meta_epoch": "2025-12-12T08:16:48.530496",
        "meta_mean_motion": 14.28787654,
        "meta_eccentricity": 0.01107994,
        "meta_inclination": 74.262,
        "meta_ra_of_asc_node": 12.4521,
        "meta_arg_of_pericenter": 118.0167,
        "meta_mean_anomaly": 243.2246,
        "meta_ephemeris_type": 0,
        "meta_classification_type": "U",
        "meta_norad_cat_id": 38483,
        "meta_element_set_no": 999,
        "meta_rev_at_epoch": 63472,
        "meta_bstar": 0.0012977102,
        "meta_mean_motion_dot": 3.471e-05,
        "meta_mean_motion_ddot": 0,
        "tle_line1": "1 38483U 93036BTT 25346.34500614  .00003471  00000+0  12977-2 0  9992",
        "tle_line2": "2 38483  74.2620  12.4521 0110799 118.0167 243.2246 14.28787654634722"
      },
      "geometry": {
        "type": "Point",
        "coordinates": [
          -33.04023433039259,
          -63.00833207428471
        ]
      }
    }
  ]
}